COMM-2555           
1 48291U 21036R   22026.87791205  .00002431  00000+0  18200-3 0  9990
2 48291  53.0566 348.0085 0001685  57.6966 302.4186 15.06405550 41806
COMM-2542           
1 48292U 21036S   22026.87329469  .00004564  00000+0  32510-3 0  9999
2 48292  53.0556 348.0261 0001819  64.5502 295.5675 15.06400951 41809
COMM-2550           
1 48293U 21036T   22026.93689756  .00005656  00000+0  39824-3 0  9993
2 48293  53.0552 347.7378 0001722  63.5946 296.5220 15.06404067 41815
COMM-2533           
1 48294U 21036U   22027.13223902  .00001485  00000+0  11854-3 0  9993
2 48294  53.0551 346.8736 0001905  57.1218 302.9954 15.06408176 42426
COMM-2535           
1 48295U 21036V   22026.59778922  .00003308  00000+0  24087-3 0  9998
2 48295  53.0535 349.2575 0001886  67.2341 292.8847 15.06401682 41763
COMM-2546           
1 48296U 21036W   22027.12487181  .00002090  00000+0  15912-3 0  9997
2 48296  53.0558 346.8982 0001789  71.8496 288.2688 15.06404658 42420
COMM-2544           
1 48297U 21036X   22027.12118677  .00001853  00000+0  14328-3 0  9995
2 48297  53.0557 346.9136 0001732  57.4883 302.6274 15.06404398 42423
COMM-2559           
1 48298U 21036Y   22026.91845726  .00001445  00000+0  11588-3 0  9996
2 48298  53.0557 347.8250 0001653  66.0125 294.1037 15.06403205 41818
COMM-2557           
1 48299U 21036Z   22027.18016242 -.00001529  00000+0 -83741-4 0  9996
2 48299  53.0540 346.6579 0001796  61.4737 298.6433 15.06403789 42433
COMM-2538           
1 48300U 21036AA  22027.17186467  .00001086  00000+0  91743-4 0  9992
2 48300  53.0557 356.6952 0001597  65.0420 295.0734 15.06411680 42296
COMM-2537           
1 48301U 21036AB  22026.90279617  .00002297  00000+0  17303-3 0  9997
2 48301  53.0580 357.8856 0001592  70.2634 289.8527 15.06406729 41668
COMM-2556           
1 48302U 21036AC  22026.63371725  .00001475  00000+0  11791-3 0  9993
2 48302  53.0576 359.1039 0001509  59.9561 300.1578 15.06406181 41624
COMM-2530           
1 48303U 21036AD  22026.96176713  .00003484  00000+0  25260-3 0  9998
2 48303  53.0577 357.6199 0001790  64.4468 295.6706 15.06407095 41676
COMM-2524           
1 48304U 21036AE  22027.09078276  .00005612  00000+0  39520-3 0  9998
2 48304  53.0559 357.0496 0001654  68.7061 291.4105 15.06411118 42282
COMM-2519           
1 48305U 21036AF  22026.95439792  .00004156  00000+0  29770-3 0  9995
2 48305  53.0555 357.6529 0001766  58.7996 301.3166 15.06408214 41675
COMM-2523           
1 48306U 21036AG  22026.88437088  .00002764  00000+0  20439-3 0  9990
2 48306  53.0546 357.9827 0001619  62.7691 297.3463 15.06402210 41667
COMM-2528           
1 48307U 21036AH  22026.94703494  .00000920  00000+0  80670-4 0  9991
2 48307  53.0570 357.6894 0001689  56.8427 303.2724 15.06397673 41678
COMM-2532           
1 48308U 21036AJ  22027.14238813  .00001669  00000+0  13092-3 0  9997
2 48308  53.0578 356.8234 0001659  65.6665 294.4497 15.06390415 42299
COMM-2517           
1 48309U 21036AK  22026.93966122  .00002206  00000+0  16689-3 0  9998
2 48309  53.0549 357.7337 0001587  72.5905 287.5258 15.06406334 41673
COMM-2536           
1 48310U 21036AL  22027.13502430  .00000799  00000+0  72528-4 0  9991
2 48310  53.0565 356.8406 0001582  67.4109 292.7047 15.06386428 42298
COMM-2534           
1 48311U 21036AM  22027.13132582  .00002400  00000+0  17992-3 0  9993
2 48311  53.0542 356.8766 0001497  71.4027 288.7125 15.06402534 42347
COMM-2061           
1 48312U 21036AN  22026.92860027  .00002183  00000+0  16539-3 0  9996
2 48312  53.0549 357.7796 0001574  56.6508 303.4631 15.06408696 41670
COMM-2541           
1 48313U 21036AP  22026.92491373  .00000682  00000+0  64654-4 0  9995
2 48313  53.0554 357.7917 0001654  69.0318 291.0848 15.06398665 41663
COMM-2549           
1 48314U 21036AQ  22027.18661069  .00001477  00000+0  11807-3 0  9990
2 48314  53.0557 356.6261 0001517  65.9798 294.1350 15.06396923 42356
COMM-2506           
1 48315U 21036AR  22026.91754130  .00008444  00000+0  58487-3 0  9999
2 48315  53.0537 357.8366 0001623  72.1371 287.9795 15.06413987 41665
COMM-2507           
1 48316U 21036AS  22026.64846708  .00003350  00000+0  24367-3 0  9994
2 48316  53.0541 359.0464 0001776  67.7324 292.3853 15.06408367 41628
COMM-2513           
1 48317U 21036AT  22026.64477551  .00001404  00000+0  11312-3 0  9995
2 48317  53.0564 359.0575 0001589  66.5935 293.5221 15.06407963 41627
COMM-2509           
1 48318U 21036AU  22027.10091261  .00001254  00000+0  10308-3 0  9995
2 48318  53.0568   6.9950 0001478  64.6389 295.4753 15.06401419 42190
COMM-2512           
1 48319U 21036AV  22027.09723343  .00005782  00000+0  40665-3 0  9996
2 48319  53.0540   7.0074 0001544  68.8306 291.2848 15.06409707 42196
COMM-2029           
1 48320U 21036AW  22027.15989224  .00001561  00000+0  12367-3 0  9996
2 48320  53.0571   6.7300 0001480  61.5988 298.5150 15.06398676 42205
COMM-2457           
1 48321U 21036AX  22026.95716616  .00002197  00000+0  16635-3 0  9995
2 48321  53.0555   7.6374 0001425  69.2950 290.8192 15.06400202 41537
COMM-2477           
1 48322U 21036AY  22027.15252729 -.00000946  00000+0 -44591-4 0  9994
2 48322  53.0557   6.7574 0001911  66.3293 293.7896 15.06395740 42152
COMM-2515           
1 48323U 21036AZ  22026.68441654 -.00000587  00000+0 -20551-4 0  9990
2 48323  53.0571   8.8781 0001478  63.4249 296.6891 15.06390337 41499
COMM-2527           
1 48324U 21036BA  22027.14514282  .00000825  00000+0  74290-4 0  9993
2 48324  53.0561   6.8147 0001540  71.5445 288.5711 15.06401537 42151
COMM-2495           
1 48325U 21036BB  22027.07510224  .00002498  00000+0  18653-3 0  9996
2 48325  53.0555   7.1289 0001496  64.6830 295.4313 15.06406562 42144
COMM-2498           
1 48326U 21036BC  22026.93873984  .00000825  00000+0  74304-4 0  9994
2 48326  53.0566   7.7205 0001243  81.1947 278.9183 15.06396324 41531
COMM-2502           
1 48327U 21036BD  22026.66966624  .00000329  00000+0  40955-4 0  9993
2 48327  53.0563   8.9258 0001727  72.0756 288.0421 15.06407652 41493
COMM-2504           
1 48328U 21036BE  22026.93136003  .00001821  00000+0  14110-3 0  9995
2 48328  53.0565   7.7551 0001585  63.3001 296.8150 15.06400735 41533
COMM-2510           
1 48329U 21036BF  22026.92768505  .00005612  00000+0  39529-3 0  9996
2 48329  53.0557   7.7806 0001809  66.5559 293.5620 15.06403524 41535
COMM-2501           
1 48330U 21036BG  22027.12303739  .00001886  00000+0  14550-3 0  9991
2 48330  53.0552   6.9123 0001644  73.1482 286.9687 15.06401957 42157
COMM-2514           
1 48331U 21036BH  22026.92030533  .00002361  00000+0  17738-3 0  9998
2 48331  53.0570   7.8138 0001608  69.5134 290.6028 15.06399947 41534
COMM-2511           
1 48332U 21036BJ  22026.85301768  .00002763  00000+0  20429-3 0  9999
2 48332  53.0541   8.1215 0001702  65.7772 294.3394 15.06402957 41526
COMM-2518           
1 48333U 21036BK  22027.11197802  .00002262  00000+0  17065-3 0  9998
2 48333  53.0541   6.9513 0001615  69.6135 290.5027 15.06405877 42158
COMM-2470           
1 48334U 21036BL  22026.64386757  .00000923  00000+0  80854-4 0  9994
2 48334  53.0545   9.0543 0001609  59.3346 300.7801 15.06399506 41494
COMM-2441           
1 48335U 21036BM  22026.64019516  .00001526  00000+0  12133-3 0  9995
2 48335  53.0553   9.0778 0001795  75.7053 284.4135 15.06408507 41497
COMM-2613           
1 48353U 21038A   22026.91109300  .00002301  00000+0  17328-3 0  9991
2 48353  53.0545 267.8624 0001624  68.5049 291.6113 15.06403924 40525
COMM-2674           
1 48354U 21038B   22026.90741195  .00002314  00000+0  17424-3 0  9996
2 48354  53.0550 267.8717 0001867  66.9694 293.1492 15.06397702 40525
COMM-2635           
1 48355U 21038C   22026.90372988  .00000789  00000+0  71902-4 0  9993
2 48355  53.0543 267.8948 0001959  72.9036 287.2168 15.06399166 40523
COMM-2637           
1 48356U 21038D   22026.90003651  .00001280  00000+0  10484-3 0  9996
2 48356  53.0568 267.9079 0001671  70.6811 289.4358 15.06401688 40522
COMM-2636           
1 48357U 21038E   22026.89635273  .00000751  00000+0  69311-4 0  9992
2 48357  53.0555 267.9200 0001891  74.8922 285.2276 15.06409994 40529
COMM-2624           
1 48358U 21038F   22026.89267111  .00000453  00000+0  49345-4 0  9999
2 48358  53.0538 267.9303 0001792  61.2829 298.8340 15.06396081 40514
COMM-2628           
1 48359U 21038G   22026.88895768 -.00009638  00000+0 -62797-3 0  9995
2 48359  53.0561 267.9573 0002248  62.3507 297.7710 15.06458996 40515
COMM-2622           
1 48360U 21038H   22027.08434058  .00000624  00000+0  60835-4 0  9997
2 48360  53.0567 267.0758 0001898  65.4259 294.6927 15.06396270 41138
COMM-2591           
1 48361U 21038J   22027.01430876  .00002094  00000+0  15946-3 0  9990
2 48361  53.0500 267.3922 0001892  68.2514 291.8676 15.06399571 41127
COMM-2578           
1 48362U 21038K   22026.90646980  .00004095  00000+0  29363-3 0  9994
2 48362  53.0580 267.8703 0001740  59.9386 300.1775 15.06402011 40525
COMM-2626           
1 48363U 21038L   22026.92445168  .00001110  00000+0  93430-4 0  9994
2 48363  53.0549 262.7878 0001748  76.3694 283.7490 15.06401382 40598
COMM-2611           
1 48364U 21038M   22026.91983198 -.00000428  00000+0 -98109-5 0  9996
2 48364  53.0561 262.8141 0002001  68.7307 291.3895 15.06403151 41182
COMM-2608           
1 48365U 21038N   22026.89866095  .00000620  00000+0  60517-4 0  9993
2 48365  53.0559 262.9193 0001834  69.4414 290.6772 15.06397736 40599
COMM-2631           
1 48366U 21038P   22026.88622414 -.00000078  00000+0  13654-4 0  9996
2 48366  53.0545 257.9594 0001897  70.1860 289.9334 15.06391284 40651
COMM-2643           
1 48367U 21038Q   22026.88254164  .00000567  00000+0  56997-4 0  9999
2 48367  53.0546 257.9917 0001754  69.1218 290.9959 15.06400334 40651
COMM-2623           
1 48368U 21038R   22027.03271791  .00000201  00000+0  32372-4 0  9999
2 48368  53.0543 257.2976 0001677  66.2809 293.8356 15.06394688 41271
COMM-2641           
1 48369U 21038S   22026.87885594  .00000072  00000+0  23755-4 0  9994
2 48369  53.0534 257.9867 0001744  66.6668 293.4504 15.06405877 40655
